{
  "type": "FeatureCollection",
  "features": [
    {
      "type": "Feature",
      "properties": {
        "norad_id": 66551,
        "name": "UNKNOWN",
        "group": "last-30-days",
        "lat": -17.243953626995683,
        "lon": 59.011977796948024,
        "alt_km": 333.8558049252342,
        "timestamp": "2025-12-04T21:36:14.652848+00:00",
        "meta_object_name": "UNKNOWN",
        "meta_object_id": "2025-271AE",
        "meta_epoch": "2025-12-02T16:00:03.000096",
        "meta_mean_motion": 15.87051116,
        "meta_eccentricity": 7.17e-05,
        "meta_inclination": 53.1571,
        "meta_ra_of_asc_node": 236.7807,
        "meta_arg_of_pericenter": 110.7411,
        "meta_mean_anomaly": 313.9012,
        "meta_ephemeris_type": 0,
        "meta_classification_type": "U",
        "meta_norad_cat_id": 66551,
        "meta_element_set_no": 999,
        "meta_rev_at_epoch": 262,
        "meta_bstar": -0.0074303,
        "meta_mean_motion_dot": -0.01709685,
        "meta_mean_motion_ddot": 0,
        "tle_line1": "1 66551U 25271AE  25336.66670139 -.01709685  00000+0 -74303-2 0  9993",
        "tle_line2": "2 66551  53.1571 236.7807 0000717 110.7411 313.9012 15.87051116  2624"
      },
      "geometry": {
        "type": "Point",
        "coordinates": [
          59.011977796948024,
          -17.243953626995683
        ]
      }
    },
    {
      "type": "Feature",
      "properties": {
        "norad_id": 66554,
        "name": "GLOBAL-33",
        "group": "last-30-days",
        "lat": -10.759757791816632,
        "lon": 90.0571884565919,
        "alt_km": 469.12201499779803,
        "timestamp": "2025-12-04T21:36:14.652859+00:00",
        "meta_object_name": "GLOBAL-33",
        "meta_object_id": "2025-267A",
        "meta_epoch": "2025-12-04T15:24:47.579904",
        "meta_mean_motion": 15.31343102,
        "meta_eccentricity": 0.00053689,
        "meta_inclination": 42.0191,
        "meta_ra_of_asc_node": 103.7308,
        "meta_arg_of_pericenter": 354.3284,
        "meta_mean_anomaly": 5.7492,
        "meta_ephemeris_type": 0,
        "meta_classification_type": "U",
        "meta_norad_cat_id": 66554,
        "meta_element_set_no": 999,
        "meta_rev_at_epoch": 216,
        "meta_bstar": 0.00083341643,
        "meta_mean_motion_dot": 0.00025621,
        "meta_mean_motion_ddot": 0,
        "tle_line1": "1 66554U 25267A   25338.64221736  .00025621  00000+0  83342-3 0  9998",
        "tle_line2": "2 66554  42.0191 103.7308 0005368 354.3284   5.7492 15.31343102  2167"
      },
      "geometry": {
        "type": "Point",
        "coordinates": [
          90.0571884565919,
          -10.759757791816632
        ]
      }
    },
    {
      "type": "Feature",
      "properties": {
        "norad_id": 66555,
        "name": "ELECTRON KICK STAGE R/B",
        "group": "last-30-days",
        "lat": 13.36399463819174,
        "lon": 117.45488760946003,
        "alt_km": 462.3202422886443,
        "timestamp": "2025-12-04T21:36:14.652869+00:00",
        "meta_object_name": "ELECTRON KICK STAGE R/B",
        "meta_object_id": "2025-267B",
        "meta_epoch": "2025-12-04T15:15:31.817952",
        "meta_mean_motion": 15.32232828,
        "meta_eccentricity": 0.00072797,
        "meta_inclination": 42.0175,
        "meta_ra_of_asc_node": 103.6834,
        "meta_arg_of_pericenter": 353.8025,
        "meta_mean_anomaly": 6.2722,
        "meta_ephemeris_type": 0,
        "meta_classification_type": "U",
        "meta_norad_cat_id": 66555,
        "meta_element_set_no": 999,
        "meta_rev_at_epoch": 216,
        "meta_bstar": 0.0014703471,
        "meta_mean_motion_dot": 0.00046832,
        "meta_mean_motion_ddot": 0,
        "tle_line1": "1 66555U 25267B   25338.63578493  .00046832  00000+0  14703-2 0  9994",
        "tle_line2": "2 66555  42.0175 103.6834 0007279 353.8025   6.2722 15.32232828  2168"
      },
      "geometry": {
        "type": "Point",
        "coordinates": [
          117.45488760946003,
          13.36399463819174
        ]
      }
    },
    {
      "type": "Feature",
      "properties": {
        "norad_id": 66557,
        "name": "STARLINK-35699",
        "group": "last-30-days",
        "lat": 35.60841461656659,
        "lon": -142.37110057758525,
        "alt_km": 356.46317843082034,
        "timestamp": "2025-12-04T21:36:14.652880+00:00",
        "meta_object_name": "STARLINK-35699",
        "meta_object_id": "2025-268A",
        "meta_epoch": "2025-12-04T14:00:01.000224",
        "meta_mean_motion": 15.70591101,
        "meta_eccentricity": 0.00016509,
        "meta_inclination": 42.9987,
        "meta_ra_of_asc_node": 169.3111,
        "meta_arg_of_pericenter": 269.8704,
        "meta_mean_anomaly": 156.0383,
        "meta_ephemeris_type": 0,
        "meta_classification_type": "U",
        "meta_norad_cat_id": 66557,
        "meta_element_set_no": 999,
        "meta_rev_at_epoch": 335,
        "meta_bstar": -0.017090667,
        "meta_mean_motion_dot": -0.01923849,
        "meta_mean_motion_ddot": 0,
        "tle_line1": "1 66557U 25268A   25338.58334491 -.01923849  00000+0 -17091-1 0  9996",
        "tle_line2": "2 66557  42.9987 169.3111 0001650 269.8704 156.0383 15.70591101  3357"
      },
      "geometry": {
        "type": "Point",
        "coordinates": [
          -142.37110057758525,
          35.60841461656659
        ]
      }
    },
    {
      "type": "Feature",
      "properties": {
        "norad_id": 66558,
        "name": "STARLINK-35695",
        "group": "last-30-days",
        "lat": 36.425928864100015,
        "lon": -140.23094990855074,
        "alt_km": 356.3366538613691,
        "timestamp": "2025-12-04T21:36:14.652889+00:00",
        "meta_object_name": "STARLINK-35695",
        "meta_object_id": "2025-268B",
        "meta_epoch": "2025-12-04T14:00:01.000224",
        "meta_mean_motion": 15.70589964,
        "meta_eccentricity": 0.00016229,
        "meta_inclination": 42.9988,
        "meta_ra_of_asc_node": 169.3065,
        "meta_arg_of_pericenter": 269.7108,
        "meta_mean_anomaly": 158.1138,
        "meta_ephemeris_type": 0,
        "meta_classification_type": "U",
        "meta_norad_cat_id": 66558,
        "meta_element_set_no": 999,
        "meta_rev_at_epoch": 335,
        "meta_bstar": -0.017056764,
        "meta_mean_motion_dot": -0.01920364,
        "meta_mean_motion_ddot": 0,
        "tle_line1": "1 66558U 25268B   25338.58334491 -.01920364  00000+0 -17057-1 0  9998",
        "tle_line2": "2 66558  42.9988 169.3065 0001622 269.7108 158.1138 15.70589964  3358"
      },
      "geometry": {
        "type": "Point",
        "coordinates": [
          -140.23094990855074,
          36.425928864100015
        ]
      }
    },
    {
      "type": "Feature",
      "properties": {
        "norad_id": 66559,
        "name": "STARLINK-35419",
        "group": "last-30-days",
        "lat": 37.20489861532853,
        "lon": -138.04427665446312,
        "alt_km": 356.25177000418444,
        "timestamp": "2025-12-04T21:36:14.652901+00:00",
        "meta_object_name": "STARLINK-35419",
        "meta_object_id": "2025-268C",
        "meta_epoch": "2025-12-04T14:00:01.000224",
        "meta_mean_motion": 15.7058824,
        "meta_eccentricity": 0.00016342,
        "meta_inclination": 42.9989,
        "meta_ra_of_asc_node": 169.3021,
        "meta_arg_of_pericenter": 269.1717,
        "meta_mean_anomaly": 160.5722,
        "meta_ephemeris_type": 0,
        "meta_classification_type": "U",
        "meta_norad_cat_id": 66559,
        "meta_element_set_no": 999,
        "meta_rev_at_epoch": 335,
        "meta_bstar": -0.017053216,
        "meta_mean_motion_dot": -0.01919894,
        "meta_mean_motion_ddot": 0,
        "tle_line1": "1 66559U 25268C   25338.58334491 -.01919894  00000+0 -17053-1 0  9991",
        "tle_line2": "2 66559  42.9989 169.3021 0001634 269.1717 160.5722 15.70588240  3357"
      },
      "geometry": {
        "type": "Point",
        "coordinates": [
          -138.04427665446312,
          37.20489861532853
        ]
      }
    },
    {
      "type": "Feature",
      "properties": {
        "norad_id": 66560,
        "name": "STARLINK-35411",
        "group": "last-30-days",
        "lat": 37.94257452519776,
        "lon": -135.8134009448405,
        "alt_km": 356.13356259049124,
        "timestamp": "2025-12-04T21:36:14.652915+00:00",
        "meta_object_name": "STARLINK-35411",
        "meta_object_id": "2025-268D",
        "meta_epoch": "2025-12-04T14:00:01.000224",
        "meta_mean_motion": 15.70587369,
        "meta_eccentricity": 0.00016075,
        "meta_inclination": 42.9988,
        "meta_ra_of_asc_node": 169.2972,
        "meta_arg_of_pericenter": 269.6418,
        "meta_mean_anomaly": 162.0202,
        "meta_ephemeris_type": 0,
        "meta_classification_type": "U",
        "meta_norad_cat_id": 66560,
        "meta_element_set_no": 999,
        "meta_rev_at_epoch": 335,
        "meta_bstar": -0.017045148,
        "meta_mean_motion_dot": -0.01919006,
        "meta_mean_motion_ddot": 0,
        "tle_line1": "1 66560U 25268D   25338.58334491 -.01919006  00000+0 -17045-1 0  9999",
        "tle_line2": "2 66560  42.9988 169.2972 0001607 269.6418 162.0202 15.70587369  3356"
      },
      "geometry": {
        "type": "Point",
        "coordinates": [
          -135.8134009448405,
          37.94257452519776
        ]
      }
    }
  ]
}